STARLINK-5238           
1 54188U 22141AH  24011.22095332  .00002372  00000+0  16703-3 0  9993
2 54188  53.2177 293.8557 0001730  89.6548 270.4642 15.08849048 66962
STARLINK-5182           
1 54189U 22141AJ  24011.91667824  .01350123  00000+0  66309-1 0  9997
2 54189  53.2158 300.2925 0001359  74.9053 310.3948 15.14691405 67164
STARLINK-5281           
1 54190U 22141AK  24011.21726682  .00001110  00000+0  87792-4 0  9990
2 54190  53.2174 293.8296 0001665 109.8553 250.2619 15.08844172 66963
STARLINK-4619           
1 54191U 22141AL  24011.75824390  .00000424  00000+0  44719-4 0  9994
2 54191  53.2174 291.5220 0001545  92.2819 267.8350 15.08838164 67043
STARLINK-5268           
1 54192U 22141AM  24011.90905693  .00000420  00000+0  44487-4 0  9996
2 54192  53.2179 290.3350 0001937 107.9330 252.1873 15.08848778 67079
STARLINK-5263           
1 54193U 22141AN  24011.93854247  .00000686  00000+0  61157-4 0  9995
2 54193  53.2165 290.5158 0001269  85.3845 274.7292 15.08837555 67077
STARLINK-5271           
1 54194U 22141AP  24011.93117095 -.00000244  00000+0  27710-5 0  9998
2 54194  53.2169 290.4711 0001420  91.5610 268.5545 15.08839689 67076
STARLINK-5258           
1 54195U 22141AQ  24011.21358322 -.00000186  00000+0  64227-5 0  9999
2 54195  53.2186 293.8087 0001531 106.5180 253.5980 15.08843661 66960
STARLINK-5237           
1 54196U 22141AR  24011.92380076  .00000408  00000+0  43715-4 0  9993
2 54196  53.2165 290.4256 0001304  97.0614 263.0527 15.08842216 67074
STARLINK-5234           
1 54197U 22141AS  24011.91001907  .00003115  00000+0  21372-3 0  9998
2 54197  53.2176 290.3442 0001603  94.8196 265.2979 15.08843808 67078
STARLINK-5246           
1 54198U 22141AT  24011.92012252 -.00001048  00000+0 -47742-4 0  9990
2 54198  53.2179 290.4018 0001424 101.1843 258.9309 15.08837469 67076
STARLINK-5244           
1 54199U 22141AU  24011.92748763  .00000168  00000+0  28642-4 0  9992
2 54199  53.2176 290.4499 0001539 102.9619 257.1545 15.08838222 67075
STARLINK-5250           
1 54200U 22141AV  24011.91274791 -.00000516  00000+0 -14289-4 0  9990
2 54200  53.2170 290.3542 0002100 131.4568 228.6605 15.08836266 67071
STARLINK-5199           
1 54201U 22141AW  24011.93485782 -.00000154  00000+0  84224-5 0  9991
2 54201  53.2176 290.4834 0001570 110.1447 249.9714 15.08838416 67079
STARLINK-5205           
1 54202U 22141AX  24011.90537616 -.00000547  00000+0 -16289-4 0  9995
2 54202  53.2178 290.3072 0001707 106.6667 253.4513 15.08845158 67079
STARLINK-5247           
1 54203U 22141AY  24011.91643098 -.00001507  00000+0 -76619-4 0  9999
2 54203  53.2180 290.3768 0001595 110.1788 249.9376 15.08844101 67078
STARLINK-5241           
1 54204U 22141AZ  24011.09943863  .00005331  00000+0  35267-3 0  9992
2 54204  53.2170 293.8096 0001372  93.3263 266.7887 15.08852625 66953
STARLINK-5249           
1 54205U 22141BA  24011.76921271 -.00001465  00000+0 -73959-4 0  9993
2 54205  53.2160 290.8790 0001370 113.7252 246.3884 15.08836382 67059
STARLINK-5264           
1 54206U 22141BB  24011.91414032 -.00000897  00000+0 -38265-4 0  9992
2 54206  53.2169 255.4171 0001607 115.0519 245.0640 15.08834996 67564
STARLINK-5262           
1 54207U 22141BC  24011.16935925  .00002896  00000+0  19992-3 0  9993
2 54207  53.2176 293.5366 0001427  90.2750 269.8406 15.08852540 66965
STARLINK-5255           
1 54208U 22141BD  24011.93532428  .00000146  00000+0  27240-4 0  9992
2 54208  53.2168 265.5318 0001502 105.9984 254.1173 15.08839007 67423
STARLINK-5259           
1 54209U 22141BE  24011.90261614 -.00001137  00000+0 -53374-4 0  9996
2 54209  53.2181 280.2965 0001332  82.4520 277.6623 15.08840254 67210
BLUEWALKER 3 DEB        
1 54247U 22111AS  24011.88997068  .00017105  00000+0  64254-3 0  9999
2 54247  53.1901 192.2446 0009836 309.2711  50.7416 15.27267996 64984
STARLINK-5464           
1 54758U 22175A   24011.28121398  .00001657  00000+0  12214-3 0  9999
2 54758  53.2187 338.6145 0001591 105.6094 254.5074 15.08844114 60962
STARLINK-5215           
1 54759U 22175B   24011.88106485  .00000911  00000+0  75337-4 0  9994
2 54759  53.2178 335.9643 0001789  83.0201 277.0995 15.08840195 61052
STARLINK-5220           
1 54760U 22175C   24011.34883494  .00001057  00000+0  84510-4 0  9994
2 54760  53.2187 343.3118 0001567 102.1786 257.9382 15.08840522 60903
STARLINK-5202           
1 54761U 22175D   24011.28627775  .00000403  00000+0  43398-4 0  9999
2 54761  53.2196 343.6348 0001465 105.7319 254.3835 15.08846934 60895
STARLINK-5214           
1 54762U 22175E   24011.33777896  .00000621  00000+0  57128-4 0  9994
2 54762  53.2192 343.2416 0001612 106.4054 253.7115 15.08843335 60900
STARLINK-5191           
1 54763U 22175F   24011.21266672 -.00000598  00000+0 -19453-4 0  9991
2 54763  53.2188 343.8819 0001463  90.0615 270.0545 15.08850992 60887
STARLINK-5458           
1 54764U 22175G   24011.92016395  .00000579  00000+0  54479-4 0  9999
2 54764  53.2167 340.4846 0001520 101.1550 258.9613 15.08837779 60995
STARLINK-5466           
1 54765U 22175H   24011.93763128 -.00000116  00000+0  10812-4 0  9995
2 54765  53.2167 340.5886 0001721  93.9331 266.1858 15.08836031 60991
STARLINK-5471           
1 54766U 22175J   24011.92657452 -.00002242  00000+0 -12279-3 0  9998
2 54766  53.2176 340.5176 0001325  92.0298 268.0846 15.08842217 60997
STARLINK-5472           
1 54767U 22175K   24011.92288906 -.00000163  00000+0  78813-5 0  9990
2 54767  53.2198 340.4999 0001505  86.8350 273.2814 15.08843676 60997
STARLINK-5444           
1 54768U 22175L   24011.89399856  .00000171  00000+0  28842-4 0  9998
2 54768  53.2175 326.0537 0001487  96.1860 263.9302 15.08838502 61193
STARLINK-5404           
1 54769U 22175M   24011.93025883 -.00000514  00000+0 -14222-4 0  9990
2 54769  53.2194 340.5441 0001805 115.0419 245.0760 15.08842738 60997
STARLINK-5448           
1 54770U 22175N   24011.14597584 -.00000983  00000+0 -43644-4 0  9997
2 54770  53.2171 329.2153 0001743  71.5970 288.5212 15.08835853 61082
STARLINK-5451           
1 54771U 22175P   24011.90677154  .00003504  00000+0  23814-3 0  9990
2 54771  53.2183 335.4149 0001734  96.5493 263.5696 15.08840630 61063
STARLINK-5452           
1 54772U 22175Q   24011.87093485 -.00001588  00000+0 -81687-4 0  9991
2 54772  53.2194 325.9203 0001274  96.8299 263.2838 15.08842221 61194
STARLINK-5453           
1 54773U 22175R   24011.18687916 -.00001129  00000+0 -52837-4 0  9990
2 54773  53.2193 343.7194 0001918  98.4037 261.7172 15.08841583 60883
STARLINK-5454           
1 54774U 22175S   24011.89295896 -.00001458  00000+0 -73527-4 0  9995
2 54774  53.2178 325.3590 0001485  93.1237 266.9925 15.08838580 61209
STARLINK-5465           
1 54775U 22175T   24011.91183599  .00000917  00000+0  75683-4 0  9997
2 54775  53.2192 340.4310 0001931  70.3570 289.7630 15.08841538 60995
STARLINK-5470           
1 54776U 22175U   24011.29356412  .00001529  00000+0  11411-3 0  9993
2 54776  53.2185 342.9717 0001455  97.7277 262.3881 15.08844952 60903
STARLINK-5468           
1 54777U 22175V   24011.90814857  .00000260  00000+0  34403-4 0  9992
2 54777  53.2196 340.4036 0001644 110.0504 250.0665 15.08843734 60995
STARLINK-5450           
1 54778U 22175W   24011.20116145 -.00000081  00000+0  13017-4 0  9991
2 54778  53.2183 328.8470 0001405  97.7993 262.3159 15.08843190 61094
STARLINK-5447           
1 54779U 22175X   24011.86724664 -.00000355  00000+0 -42176-5 0  9999
2 54779  53.2188 325.9046 0001666  86.0327 274.0855 15.08848439 61193
STARLINK-5449           
1 54780U 22175Y   24011.25266003  .00001467  00000+0  11023-3 0  9990
2 54780  53.2178 328.4515 0001642  90.5139 269.6041 15.08845059 61101
STARLINK-5443           
1 54781U 22175Z   24011.26371663  .00004004  00000+0  26960-3 0  9997
2 54781  53.2181 328.5194 0001685 130.6205 229.4934 15.08832344 61105
STARLINK-5437           
1 54782U 22175AA  24011.89195119  .00066170  00000+0  23610-2 0  9997
2 54782  53.2198 277.3784 0005360 141.9609 218.1771 15.28278731 61882
STARLINK-5439           
1 54783U 22175AB  24011.26003108  .00002481  00000+0  17392-3 0  9991
2 54783  53.2175 328.5059 0001380  88.1625 271.9525 15.08845560 61107
STARLINK-5442           
1 54784U 22175AC  24011.90446887 -.00000992  00000+0 -44207-4 0  9991
2 54784  53.2182 340.3861 0001704  75.3577 284.7604 15.08844713 60998
STARLINK-5440           
1 54785U 22175AD  24011.90401841  .00001425  00000+0  10762-3 0  9991
2 54785  53.2187 285.4950 0001439 116.7171 243.3969 15.08826704 61768
STARLINK-5438           
1 54786U 22175AE  24011.28213548  .00000961  00000+0  78458-4 0  9999
2 54786  53.2189 328.6333 0001679  86.9989 273.1195 15.08848669 61101
STARLINK-5441           
1 54787U 22175AF  24011.90078455  .00000635  00000+0  58002-4 0  9996
2 54787  53.2188 340.3643 0001758  81.2806 278.8385 15.08840970 60996
STARLINK-5399           
1 54788U 22175AG  24011.24897589  .00001199  00000+0  93382-4 0  9997
2 54788  53.2185 328.4303 0001468  86.9889 273.1271 15.08844058 61102
STARLINK-5446           
1 54789U 22175AH  24011.84467077 -.00000819  00000+0 -33376-4 0  9996
2 54789  53.2179 310.6595 0001439  98.9824 261.1331 15.08839922 61403
STARLINK-5445           
1 54790U 22175AJ  24011.24160446  .00002817  00000+0  19499-3 0  9999
2 54790  53.2188 328.3910 0001611 107.1624 252.9544 15.08848104 61108
STARLINK-5425           
1 54791U 22175AK  24011.25634823  .00000525  00000+0  51047-4 0  9996
2 54791  53.2193 328.4821 0001495  80.8123 279.3038 15.08841509 61101
STARLINK-5431           
1 54792U 22175AL  24011.29725061  .00000990  00000+0  80292-4 0  9996
2 54792  53.2196 342.9904 0001576  90.6551 269.4622 15.08840521 60901
STARLINK-5433           
1 54793U 22175AM  24011.85343596 -.00001747  00000+0 -91657-4 0  9998
2 54793  53.2176 315.8599 0001737 109.3155 250.8025 15.08844066 61333
